{"type": "FeatureCollection", "features": [ {"type": "Feature", "properties": {"norad_id": 37003, "name": "FENGYUN 1C DEB", "group": "fengyun-1c-debris", "lat": -20.85307234235385, "lon": -178.93384496302863, "alt_km": 846.7973065675678, "timestamp": "2025-12-06T14:35:37.415420+00:00", "meta": {"OBJECT_NAME": "FENGYUN 1C DEB", "OBJECT_ID": "1999-025ECK", "EPOCH": "2025-12-05T21:02:12.179040", "MEAN_MOTION": 13.96201214, "ECCENTRICITY": 0.00966508, "INCLINATION": 98.8459, "RA_OF_ASC_NODE": 3.764, "ARG_OF_PERICENTER": 180.8948, "MEAN_ANOMALY": 304.7411, "EPHEMERIS_TYPE": 0, "CLASSIFICATION_TYPE": "U", "NORAD_CAT_ID": 37003, "ELEMENT_SET_NO": 999, "REV_AT_EPOCH": 60561, "BSTAR": 0.0011542513, "MEAN_MOTION_DOT": 1.609e-05, "MEAN_MOTION_DDOT": 0}, "tle": {"line1": "1 37003U 99025ECK 25339.87652985  .00001609  00000+0  11543-2 0  9991", "line2": "2 37003  98.8459   3.7640 0096650 180.8948 304.7411 13.96201214605619"}}, "geometry": {"type": "Point", "coordinates": [-178.93384496302863, -20.85307234235385]}}, {"type": "Feature", "properties": {"norad_id": 37006, "name": "FENGYUN 1C DEB", "group": "fengyun-1c-debris", "lat": 77.28829864614792, "lon": -178.03473422317435, "alt_km": 903.5205478643129, "timestamp": "2025-12-06T14:35:37.415430+00:00", "meta": {"OBJECT_NAME": "FENGYUN 1C DEB", "OBJECT_ID": "1999-025ECN", "EPOCH": "2025-11-30T22:17:22.604640", "MEAN_MOTION": 14.48720025, "ECCENTRICITY": 0.02561349, "INCLINATION": 99.2981, "RA_OF_ASC_NODE": 222.2839, "ARG_OF_PERICENTER": 283.324, "MEAN_ANOMALY": 73.9509, "EPHEMERIS_TYPE": 0, "CLASSIFICATION_TYPE": "U", "NORAD_CAT_ID": 37006, "ELEMENT_SET_NO": 999, "REV_AT_EPOCH": 64943, "BSTAR": 0.00098281369, "MEAN_MOTION_DOT": 5.562e-05, "MEAN_MOTION_DDOT": 0}, "tle": {"line1": "1 37006U 99025ECN 25334.92873385  .00005562  00000+0  98281-3 0  9991", "line2": "2 37006  99.2981 222.2839 0256134 283.3240  73.9509 14.48720025649439"}}, "geometry": {"type": "Point", "coordinates": [-178.03473422317435, 77.28829864614792]}}, {"type": "Feature", "properties": {"norad_id": 37008, "name": "FENGYUN 1C DEB", "group": "fengyun-1c-debris", "lat": -52.78370169584862, "lon": 111.61738102040307, "alt_km": 837.3503114170735, "timestamp": "2025-12-06T14:35:37.415444+00:00", "meta": {"OBJECT_NAME": "FENGYUN 1C DEB", "OBJECT_ID": "1999-025ECQ", "EPOCH": "2025-12-03T06:40:56.896320", "MEAN_MOTION": 14.07864838, "ECCENTRICITY": 0.0061332, "INCLINATION": 99.1352, "RA_OF_ASC_NODE": 96.0185, "ARG_OF_PERICENTER": 279.9082, "MEAN_ANOMALY": 79.5167, "EPHEMERIS_TYPE": 0, "CLASSIFICATION_TYPE": "U", "NORAD_CAT_ID": 37008, "ELEMENT_SET_NO": 999, "REV_AT_EPOCH": 60181, "BSTAR": 0.00175, "MEAN_MOTION_DOT": 2.974e-05, "MEAN_MOTION_DDOT": 0}, "tle": {"line1": "1 37008U 99025ECQ 25337.27843630  .00002974  00000+0  17500-2 0  9992", "line2": "2 37008  99.1352  96.0185 0061332 279.9082  79.5167 14.07864838601810"}}, "geometry": {"type": "Point", "coordinates": [111.61738102040307, -52.78370169584862]}}, {"type": "Feature", "properties": {"norad_id": 37017, "name": "FENGYUN 1C DEB", "group": "fengyun-1c-debris", "lat": -80.75545951757279, "lon": 33.03267896295258, "alt_km": 849.1977010136325, "timestamp": "2025-12-06T14:35:37.415454+00:00", "meta": {"OBJECT_NAME": "FENGYUN 1C DEB", "OBJECT_ID": "1999-025ECZ", "EPOCH": "2025-12-05T14:00:41.567616", "MEAN_MOTION": 14.40480124, "ECCENTRICITY": 0.02836439, "INCLINATION": 98.7893, "RA_OF_ASC_NODE": 283.8898, "ARG_OF_PERICENTER": 26.5067, "MEAN_ANOMALY": 335.0314, "EPHEMERIS_TYPE": 0, "CLASSIFICATION_TYPE": "U", "NORAD_CAT_ID": 37017, "ELEMENT_SET_NO": 999, "REV_AT_EPOCH": 61058, "BSTAR": 0.0032631426, "MEAN_MOTION_DOT": 0.00016728, "MEAN_MOTION_DDOT": 0}, "tle": {"line1": "1 37017U 99025ECZ 25339.58381444  .00016728  00000+0  32631-2 0  9992", "line2": "2 37017  98.7893 283.8898 0283643  26.5067 335.0314 14.40480124610589"}}, "geometry": {"type": "Point", "coordinates": [33.03267896295258, -80.75545951757279]}}, {"type": "Feature", "properties": {"norad_id": 37021, "name": "FENGYUN 1C DEB", "group": "fengyun-1c-debris", "lat": -15.367536995794984, "lon": 175.15577262948096, "alt_km": 753.7105696938388, "timestamp": "2025-12-06T14:35:37.415464+00:00", "meta": {"OBJECT_NAME": "FENGYUN 1C DEB", "OBJECT_ID": "1999-025EDD", "EPOCH": "2025-12-04T08:05:12.810048", "MEAN_MOTION": 14.32214059, "ECCENTRICITY": 0.0175512, "INCLINATION": 98.3859, "RA_OF_ASC_NODE": 355.2821, "ARG_OF_PERICENTER": 276.8323, "MEAN_ANOMALY": 97.3533, "EPHEMERIS_TYPE": 0, "CLASSIFICATION_TYPE": "U", "NORAD_CAT_ID": 37021, "ELEMENT_SET_NO": 999, "REV_AT_EPOCH": 69934, "BSTAR": 0.0015095, "MEAN_MOTION_DOT": 4.777e-05, "MEAN_MOTION_DDOT": 0}, "tle": {"line1": "1 37021U 99025EDD 25338.33695382  .00004777  00000+0  15095-2 0  9994", "line2": "2 37021  98.3859 355.2821 0175512 276.8323  97.3533 14.32214059699347"}}, "geometry": {"type": "Point", "coordinates": [175.15577262948096, -15.367536995794984]}}, {"type": "Feature", "properties": {"norad_id": 37028, "name": "FENGYUN 1C DEB", "group": "fengyun-1c-debris", "lat": 54.20642549165348, "lon": -125.02838763265086, "alt_km": 799.6818487018236, "timestamp": "2025-12-06T14:35:37.415474+00:00", "meta": {"OBJECT_NAME": "FENGYUN 1C DEB", "OBJECT_ID": "1999-025EDL", "EPOCH": "2025-12-03T12:03:55.407168", "MEAN_MOTION": 14.22624791, "ECCENTRICITY": 0.00324291, "INCLINATION": 99.2455, "RA_OF_ASC_NODE": 244.7709, "ARG_OF_PERICENTER": 124.7401, "MEAN_ANOMALY": 235.6837, "EPHEMERIS_TYPE": 0, "CLASSIFICATION_TYPE": "U", "NORAD_CAT_ID": 37028, "ELEMENT_SET_NO": 999, "REV_AT_EPOCH": 60344, "BSTAR": 0.0024005824, "MEAN_MOTION_DOT": 5.352e-05, "MEAN_MOTION_DDOT": 0}, "tle": {"line1": "1 37028U 99025EDL 25337.50272462  .00005352  00000+0  24006-2 0  9991", "line2": "2 37028  99.2455 244.7709 0032429 124.7401 235.6837 14.22624791603447"}}, "geometry": {"type": "Point", "coordinates": [-125.02838763265086, 54.20642549165348]}}, {"type": "Feature", "properties": {"norad_id": 37036, "name": "FENGYUN 1C DEB", "group": "fengyun-1c-debris", "lat": -57.837021961097896, "lon": 139.47836192084213, "alt_km": 976.2748115172981, "timestamp": "2025-12-06T14:35:37.415484+00:00", "meta": {"OBJECT_NAME": "FENGYUN 1C DEB", "OBJECT_ID": "1999-025EDU", "EPOCH": "2025-12-05T16:56:11.377536", "MEAN_MOTION": 14.03551942, "ECCENTRICITY": 0.01242877, "INCLINATION": 98.7131, "RA_OF_ASC_NODE": 332.7285, "ARG_OF_PERICENTER": 74.8447, "MEAN_ANOMALY": 286.6428, "EPHEMERIS_TYPE": 0, "CLASSIFICATION_TYPE": "U", "NORAD_CAT_ID": 37036, "ELEMENT_SET_NO": 999, "REV_AT_EPOCH": 63649, "BSTAR": 0.00074827918, "MEAN_MOTION_DOT": 1.216e-05, "MEAN_MOTION_DDOT": 0}, "tle": {"line1": "1 37036U 99025EDU 25339.70568724  .00001216  00000+0  74828-3 0  9996", "line2": "2 37036  98.7131 332.7285 0124287  74.8447 286.6428 14.03551942636496"}}, "geometry": {"type": "Point", "coordinates": [139.47836192084213, -57.837021961097896]}}, {"type": "Feature", "properties": {"norad_id": 37044, "name": "FENGYUN 1C DEB", "group": "fengyun-1c-debris", "lat": 23.41747635276415, "lon": 83.16946183173476, "alt_km": 1330.0096794273268, "timestamp": "2025-12-06T14:35:37.415494+00:00", "meta": {"OBJECT_NAME": "FENGYUN 1C DEB", "OBJECT_ID": "1999-025EEC", "EPOCH": "2025-12-04T02:53:44.693952", "MEAN_MOTION": 13.70576401, "ECCENTRICITY": 0.05097958, "INCLINATION": 98.9648, "RA_OF_ASC_NODE": 84.7582, "ARG_OF_PERICENTER": 184.1906, "MEAN_ANOMALY": 175.4892, "EPHEMERIS_TYPE": 0, "CLASSIFICATION_TYPE": "U", "NORAD_CAT_ID": 37044, "ELEMENT_SET_NO": 999, "REV_AT_EPOCH": 83740, "BSTAR": 0.0059542897, "MEAN_MOTION_DOT": 0.0001335, "MEAN_MOTION_DDOT": 0}, "tle": {"line1": "1 37044U 99025EEC 25338.12065618  .00013350  00000+0  59543-2 0  9992", "line2": "2 37044  98.9648  84.7582 0509795 184.1906 175.4892 13.70576401837404"}}, "geometry": {"type": "Point", "coordinates": [83.16946183173476, 23.41747635276415]}}, {"type": "Feature", "properties": {"norad_id": 37046, "name": "FENGYUN 1C DEB", "group": "fengyun-1c-debris", "lat": -46.98828475124713, "lon": 4.308473675574208, "alt_km": 781.1703009627809, "timestamp": "2025-12-06T14:35:37.415506+00:00", "meta": {"OBJECT_NAME": "FENGYUN 1C DEB", "OBJECT_ID": "1999-025EEE", "EPOCH": "2025-11-28T06:15:00.234432", "MEAN_MOTION": 14.24764433, "ECCENTRICITY": 0.00496678, "INCLINATION": 98.5468, "RA_OF_ASC_NODE": 346.9063, "ARG_OF_PERICENTER": 349.8897, "MEAN_ANOMALY": 10.1279, "EPHEMERIS_TYPE": 0, "CLASSIFICATION_TYPE": "U", "NORAD_CAT_ID": 37046, "ELEMENT_SET_NO": 999, "REV_AT_EPOCH": 63975, "BSTAR": 0.00081954575, "MEAN_MOTION_DOT": 1.891e-05, "MEAN_MOTION_DDOT": 0}, "tle": {"line1": "1 37046U 99025EEE 25332.26041938  .00001891  00000+0  81955-3 0  9992", "line2": "2 37046  98.5468 346.9063 0049667 349.8897  10.1279 14.24764433639751"}}, "geometry": {"type": "Point", "coordinates": [4.308473675574208, -46.98828475124713]}}, {"type": "Feature", "properties": {"norad_id": 37048, "name": "FENGYUN 1C DEB", "group": "fengyun-1c-debris", "lat": 30.99519991329883, "lon": -162.96495711387183, "alt_km": 1142.557329301536, "timestamp": "2025-12-06T14:35:37.415518+00:00", "meta": {"OBJECT_NAME": "FENGYUN 1C DEB", "OBJECT_ID": "1999-025EEG", "EPOCH": "2025-12-02T20:47:13.549056", "MEAN_MOTION": 13.6513046, "ECCENTRICITY": 0.02527371, "INCLINATION": 98.8882, "RA_OF_ASC_NODE": 198.9974, "ARG_OF_PERICENTER": 175.2507, "MEAN_ANOMALY": 198.4807, "EPHEMERIS_TYPE": 0, "CLASSIFICATION_TYPE": "U", "NORAD_CAT_ID": 37048, "ELEMENT_SET_NO": 999, "REV_AT_EPOCH": 62035, "BSTAR": 0.00029274294, "MEAN_MOTION_DOT": 2.57e-06, "MEAN_MOTION_DDOT": 0}, "tle": {"line1": "1 37048U 99025EEG 25336.86612904  .00000257  00000+0  29274-3 0  9992", "line2": "2 37048  98.8882 198.9974 0252737 175.2507 198.4807 13.65130460620359"}}, "geometry": {"type": "Point", "coordinates": [-162.96495711387183, 30.99519991329883]}}]}